{"fetched_at":"2026-07-14T17:40:53.405Z","source":"https://celestrak.org/NORAD/elements/gp.php?NAME=KINEIS&FORMAT=JSON","constellation":"kineis","records":[{"OBJECT_NAME":"KINEIS-1B","OBJECT_ID":"2024-114A","EPOCH":"2026-07-14T05:15:05.713632","CLASSIFICATION_TYPE":"U","MEAN_MOTION":14.80666301,"ECCENTRICITY":0.0003032,"INCLINATION":97.9828,"RA_OF_ASC_NODE":219.2751,"ARG_OF_PERICENTER":40.7775,"MEAN_ANOMALY":319.3664,"EPHEMERIS_TYPE":0,"NORAD_CAT_ID":60079,"ELEMENT_SET_NO":999,"REV_AT_EPOCH":11140,"BSTAR":0.000057241,"MEAN_MOTION_DOT":0.00000387,"MEAN_MOTION_DDOT":0},{"OBJECT_NAME":"KINEIS-1C","OBJECT_ID":"2024-114C","EPOCH":"2026-07-14T04:26:12.982272","CLASSIFICATION_TYPE":"U","MEAN_MOTION":14.80668045,"ECCENTRICITY":0.0002564,"INCLINATION":97.9841,"RA_OF_ASC_NODE":219.0965,"ARG_OF_PERICENTER":96.1274,"MEAN_ANOMALY":264.0231,"EPHEMERIS_TYPE":0,"NORAD_CAT_ID":60081,"ELEMENT_SET_NO":999,"REV_AT_EPOCH":11137,"BSTAR":0.000055926,"MEAN_MOTION_DOT":0.00000377,"MEAN_MOTION_DDOT":0},{"OBJECT_NAME":"KINEIS-1D","OBJECT_ID":"2024-114D","EPOCH":"2026-07-14T03:42:17.995680","CLASSIFICATION_TYPE":"U","MEAN_MOTION":14.76361834,"ECCENTRICITY":0.0002948,"INCLINATION":97.9878,"RA_OF_ASC_NODE":214.9957,"ARG_OF_PERICENTER":99.7841,"MEAN_ANOMALY":260.3701,"EPHEMERIS_TYPE":0,"NORAD_CAT_ID":60082,"ELEMENT_SET_NO":999,"REV_AT_EPOCH":11110,"BSTAR":0.000051664,"MEAN_MOTION_DOT":0.00000308,"MEAN_MOTION_DDOT":0},{"OBJECT_NAME":"KINEIS-1E","OBJECT_ID":"2024-114E","EPOCH":"2026-07-14T03:14:35.531808","CLASSIFICATION_TYPE":"U","MEAN_MOTION":14.80693225,"ECCENTRICITY":0.0004103,"INCLINATION":97.8944,"RA_OF_ASC_NODE":218.128,"ARG_OF_PERICENTER":111.977,"MEAN_ANOMALY":248.1879,"EPHEMERIS_TYPE":0,"NORAD_CAT_ID":60083,"ELEMENT_SET_NO":999,"REV_AT_EPOCH":11137,"BSTAR":0.000064982,"MEAN_MOTION_DOT":0.00000448,"MEAN_MOTION_DDOT":0},{"OBJECT_NAME":"KINEIS-1A","OBJECT_ID":"2024-114F","EPOCH":"2026-07-14T05:40:02.840736","CLASSIFICATION_TYPE":"U","MEAN_MOTION":14.80681575,"ECCENTRICITY":0.0005443,"INCLINATION":97.8917,"RA_OF_ASC_NODE":218.3215,"ARG_OF_PERICENTER":64.77,"MEAN_ANOMALY":295.4076,"EPHEMERIS_TYPE":0,"NORAD_CAT_ID":60084,"ELEMENT_SET_NO":999,"REV_AT_EPOCH":11139,"BSTAR":0.000058753,"MEAN_MOTION_DOT":0.000004,"MEAN_MOTION_DDOT":0},{"OBJECT_NAME":"KINEIS-3C","OBJECT_ID":"2024-172A","EPOCH":"2026-07-14T04:32:29.826240","CLASSIFICATION_TYPE":"U","MEAN_MOTION":14.72287613,"ECCENTRICITY":0.0002685,"INCLINATION":98.0438,"RA_OF_ASC_NODE":284.8019,"ARG_OF_PERICENTER":83.6571,"MEAN_ANOMALY":276.4942,"EPHEMERIS_TYPE":0,"NORAD_CAT_ID":61220,"ELEMENT_SET_NO":999,"REV_AT_EPOCH":9704,"BSTAR":0.00014174,"MEAN_MOTION_DOT":0.00000846,"MEAN_MOTION_DDOT":0},{"OBJECT_NAME":"KINEIS-3D","OBJECT_ID":"2024-172B","EPOCH":"2026-07-14T04:22:48.395712","CLASSIFICATION_TYPE":"U","MEAN_MOTION":14.7228455,"ECCENTRICITY":0.0002444,"INCLINATION":98.043,"RA_OF_ASC_NODE":284.806,"ARG_OF_PERICENTER":86.1454,"MEAN_ANOMALY":274.0032,"EPHEMERIS_TYPE":0,"NORAD_CAT_ID":61221,"ELEMENT_SET_NO":999,"REV_AT_EPOCH":9732,"BSTAR":0.000092561,"MEAN_MOTION_DOT":0.00000535,"MEAN_MOTION_DDOT":0},{"OBJECT_NAME":"KINEIS-3E","OBJECT_ID":"2024-172C","EPOCH":"2026-07-13T19:48:51.833088","CLASSIFICATION_TYPE":"U","MEAN_MOTION":14.72274073,"ECCENTRICITY":0.0002705,"INCLINATION":98.0398,"RA_OF_ASC_NODE":284.4347,"ARG_OF_PERICENTER":91.5666,"MEAN_ANOMALY":268.5851,"EPHEMERIS_TYPE":0,"NORAD_CAT_ID":61222,"ELEMENT_SET_NO":999,"REV_AT_EPOCH":9727,"BSTAR":0.00015131,"MEAN_MOTION_DOT":0.00000906,"MEAN_MOTION_DDOT":0},{"OBJECT_NAME":"KINEIS-3A","OBJECT_ID":"2024-172D","EPOCH":"2026-07-14T05:12:15.604992","CLASSIFICATION_TYPE":"U","MEAN_MOTION":14.72307931,"ECCENTRICITY":0.0002232,"INCLINATION":98.0425,"RA_OF_ASC_NODE":284.9192,"ARG_OF_PERICENTER":44.1275,"MEAN_ANOMALY":316.011,"EPHEMERIS_TYPE":0,"NORAD_CAT_ID":61223,"ELEMENT_SET_NO":999,"REV_AT_EPOCH":9675,"BSTAR":0.00015089,"MEAN_MOTION_DOT":0.00000904,"MEAN_MOTION_DDOT":0},{"OBJECT_NAME":"KINEIS-3B","OBJECT_ID":"2024-172E","EPOCH":"2026-07-14T04:47:13.725024","CLASSIFICATION_TYPE":"U","MEAN_MOTION":14.72294128,"ECCENTRICITY":0.0001687,"INCLINATION":98.0419,"RA_OF_ASC_NODE":284.9244,"ARG_OF_PERICENTER":30.7849,"MEAN_ANOMALY":329.3457,"EPHEMERIS_TYPE":0,"NORAD_CAT_ID":61224,"ELEMENT_SET_NO":999,"REV_AT_EPOCH":9732,"BSTAR":0.00015035,"MEAN_MOTION_DOT":0.000009,"MEAN_MOTION_DDOT":0},{"OBJECT_NAME":"KINEIS-5C","OBJECT_ID":"2024-219A","EPOCH":"2026-07-14T04:14:25.216800","CLASSIFICATION_TYPE":"U","MEAN_MOTION":14.72313945,"ECCENTRICITY":0.0004072,"INCLINATION":97.9065,"RA_OF_ASC_NODE":353.2829,"ARG_OF_PERICENTER":176.0997,"MEAN_ANOMALY":184.0243,"EPHEMERIS_TYPE":0,"NORAD_CAT_ID":62081,"ELEMENT_SET_NO":999,"REV_AT_EPOCH":8772,"BSTAR":0.000057061,"MEAN_MOTION_DOT":0.00000312,"MEAN_MOTION_DDOT":0},{"OBJECT_NAME":"KINEIS-5D","OBJECT_ID":"2024-219B","EPOCH":"2026-07-14T04:52:46.619040","CLASSIFICATION_TYPE":"U","MEAN_MOTION":14.72492555,"ECCENTRICITY":0.0005196,"INCLINATION":97.9178,"RA_OF_ASC_NODE":353.375,"ARG_OF_PERICENTER":170.4304,"MEAN_ANOMALY":189.7004,"EPHEMERIS_TYPE":0,"NORAD_CAT_ID":62082,"ELEMENT_SET_NO":999,"REV_AT_EPOCH":8773,"BSTAR":0.000080248,"MEAN_MOTION_DOT":0.00000461,"MEAN_MOTION_DDOT":0},{"OBJECT_NAME":"KINEIS-5E","OBJECT_ID":"2024-219C","EPOCH":"2026-07-14T05:18:15.522336","CLASSIFICATION_TYPE":"U","MEAN_MOTION":14.72298546,"ECCENTRICITY":0.00067,"INCLINATION":97.9023,"RA_OF_ASC_NODE":353.4208,"ARG_OF_PERICENTER":167.4251,"MEAN_ANOMALY":192.7125,"EPHEMERIS_TYPE":0,"NORAD_CAT_ID":62083,"ELEMENT_SET_NO":999,"REV_AT_EPOCH":8774,"BSTAR":0.000052653,"MEAN_MOTION_DOT":0.00000284,"MEAN_MOTION_DDOT":0},{"OBJECT_NAME":"KINEIS-5A","OBJECT_ID":"2024-219D","EPOCH":"2026-07-14T04:46:49.785312","CLASSIFICATION_TYPE":"U","MEAN_MOTION":14.7225354,"ECCENTRICITY":0.0003643,"INCLINATION":97.8965,"RA_OF_ASC_NODE":353.6799,"ARG_OF_PERICENTER":203.5639,"MEAN_ANOMALY":156.5402,"EPHEMERIS_TYPE":0,"NORAD_CAT_ID":62084,"ELEMENT_SET_NO":999,"REV_AT_EPOCH":8774,"BSTAR":0.0001216,"MEAN_MOTION_DOT":0.00000719,"MEAN_MOTION_DDOT":0},{"OBJECT_NAME":"KINEIS-5B","OBJECT_ID":"2024-219E","EPOCH":"2026-07-14T04:31:47.146368","CLASSIFICATION_TYPE":"U","MEAN_MOTION":14.78384312,"ECCENTRICITY":0.0002426,"INCLINATION":98.0089,"RA_OF_ASC_NODE":358.8701,"ARG_OF_PERICENTER":147.3629,"MEAN_ANOMALY":212.7732,"EPHEMERIS_TYPE":0,"NORAD_CAT_ID":62085,"ELEMENT_SET_NO":999,"REV_AT_EPOCH":8799,"BSTAR":0.000081607,"MEAN_MOTION_DOT":0.00000542,"MEAN_MOTION_DDOT":0},{"OBJECT_NAME":"KINEIS-2C","OBJECT_ID":"2025-028B","EPOCH":"2026-07-14T03:29:53.553408","CLASSIFICATION_TYPE":"U","MEAN_MOTION":14.73427427,"ECCENTRICITY":0.0004171,"INCLINATION":98.1231,"RA_OF_ASC_NODE":249.5681,"ARG_OF_PERICENTER":162.0533,"MEAN_ANOMALY":198.0822,"EPHEMERIS_TYPE":0,"NORAD_CAT_ID":62929,"ELEMENT_SET_NO":999,"REV_AT_EPOCH":7658,"BSTAR":0.00012943,"MEAN_MOTION_DOT":0.00000788,"MEAN_MOTION_DDOT":0}]}
