KINEIS-1B               
1 60079U 24114A   26195.21881613  .00000387  00000+0  57241-4 0  9997
2 60079  97.9828 219.2751 0003032  40.7775 319.3664 14.80666301111406
KINEIS-1C               
1 60081U 24114C   26195.18487248  .00000377  00000+0  55926-4 0  9999
2 60081  97.9841 219.0965 0002564  96.1274 264.0231 14.80668045111376
KINEIS-1D               
1 60082U 24114D   26195.15437495  .00000308  00000+0  51664-4 0  9995
2 60082  97.9878 214.9957 0002948  99.7841 260.3701 14.76361834111100
KINEIS-1E               
1 60083U 24114E   26195.13513347  .00000448  00000+0  64982-4 0  9997
2 60083  97.8944 218.1280 0004103 111.9770 248.1879 14.80693225111378
KINEIS-1A               
1 60084U 24114F   26195.23614399  .00000400  00000+0  58753-4 0  9995
2 60084  97.8917 218.3215 0005443  64.7700 295.4076 14.80681575111396
KINEIS-3C               
1 61220U 24172A   26195.18923410  .00000846  00000+0  14174-3 0  9995
2 61220  98.0438 284.8019 0002685  83.6571 276.4942 14.72287613 97043
KINEIS-3D               
1 61221U 24172B   26195.18250458  .00000535  00000+0  92561-4 0  9993
2 61221  98.0430 284.8060 0002444  86.1454 274.0032 14.72284550 97325
KINEIS-3E               
1 61222U 24172C   26194.82559992  .00000906  00000+0  15131-3 0  9998
2 61222  98.0398 284.4347 0002705  91.5666 268.5851 14.72274073 97278
KINEIS-3A               
1 61223U 24172D   26195.21684728  .00000904  00000+0  15089-3 0  9999
2 61223  98.0425 284.9192 0002232  44.1275 316.0110 14.72307931 96757
KINEIS-3B               
1 61224U 24172E   26195.19946441  .00000900  00000+0  15035-3 0  9997
2 61224  98.0419 284.9244 0001687  30.7849 329.3457 14.72294128 97328
KINEIS-5C               
1 62081U 24219A   26195.17668075  .00000312  00000+0  57061-4 0  9996
2 62081  97.9065 353.2829 0004072 176.0997 184.0243 14.72313945 87724
KINEIS-5D               
1 62082U 24219B   26195.20331735  .00000461  00000+0  80248-4 0  9999
2 62082  97.9178 353.3750 0005196 170.4304 189.7004 14.72492555 87735
KINEIS-5E               
1 62083U 24219C   26195.22101299  .00000284  00000+0  52653-4 0  9994
2 62083  97.9023 353.4208 0006700 167.4251 192.7125 14.72298546 87746
KINEIS-5A               
1 62084U 24219D   26195.19918733  .00000719  00000+0  12160-3 0  9991
2 62084  97.8965 353.6799 0003643 203.5639 156.5402 14.72253540 87744
KINEIS-5B               
1 62085U 24219E   26195.18874012  .00000542  00000+0  81607-4 0  9999
2 62085  98.0089 358.8701 0002426 147.3629 212.7732 14.78384312 87993
KINEIS-2C               
1 62929U 25028B   26195.14575872  .00000788  00000+0  12943-3 0  9991
2 62929  98.1231 249.5681 0004171 162.0533 198.0822 14.73427427 76589
